{"type": "FeatureCollection", "features": [ {"type": "Feature", "properties": {"norad_id": 67011, "name": "STARLINK-36167", "group": "last-30-days", "lat": 40.932599596736274, "lon": 97.39525734150584, "alt_km": 306.744903190096, "timestamp": "2025-12-22T08:58:19.049658+00:00", "meta": {"OBJECT_NAME": "STARLINK-36167", "OBJECT_ID": "2025-293J", "EPOCH": "2025-12-22T04:00:01.998720", "MEAN_MOTION": 15.88585, "ECCENTRICITY": 0.0004009, "INCLINATION": 69.9934, "RA_OF_ASC_NODE": 296.414, "ARG_OF_PERICENTER": 281.6459, "MEAN_ANOMALY": 110.1258, "EPHEMERIS_TYPE": 0, "CLASSIFICATION_TYPE": "U", "NORAD_CAT_ID": 67011, "ELEMENT_SET_NO": 999, "REV_AT_EPOCH": 163, "BSTAR": -0.0070442, "MEAN_MOTION_DOT": -0.0171762, "MEAN_MOTION_DDOT": 0}, "tle": {"line1": "1 67011U 25293J   25356.16668980 -.01717620  00000+0 -70442-2 0  9995", "line2": "2 67011  69.9934 296.4140 0004009 281.6459 110.1258 15.88585000  1639"}}, "geometry": {"type": "Point", "coordinates": [97.39525734150584, 40.932599596736274]}}, {"type": "Feature", "properties": {"norad_id": 67012, "name": "STARLINK-36175", "group": "last-30-days", "lat": 36.39213316158273, "lon": 100.23185722133822, "alt_km": 306.72111024497826, "timestamp": "2025-12-22T08:58:19.049689+00:00", "meta": {"OBJECT_NAME": "STARLINK-36175", "OBJECT_ID": "2025-293K", "EPOCH": "2025-12-22T04:00:01.998720", "MEAN_MOTION": 15.88490552, "ECCENTRICITY": 0.0003885, "INCLINATION": 69.9934, "RA_OF_ASC_NODE": 296.4085, "ARG_OF_PERICENTER": 261.5371, "MEAN_ANOMALY": 135.3475, "EPHEMERIS_TYPE": 0, "CLASSIFICATION_TYPE": "U", "NORAD_CAT_ID": 67012, "ELEMENT_SET_NO": 999, "REV_AT_EPOCH": 163, "BSTAR": -0.006701, "MEAN_MOTION_DOT": -0.01637521, "MEAN_MOTION_DDOT": 0}, "tle": {"line1": "1 67012U 25293K   25356.16668980 -.01637521  00000+0 -67010-2 0  9994", "line2": "2 67012  69.9934 296.4085 0003885 261.5371 135.3475 15.88490552  1636"}}, "geometry": {"type": "Point", "coordinates": [100.23185722133822, 36.39213316158273]}}, {"type": "Feature", "properties": {"norad_id": 67013, "name": "STARLINK-35856", "group": "last-30-days", "lat": 33.95444827977419, "lon": 101.60417133457148, "alt_km": 307.4333262309592, "timestamp": "2025-12-22T08:58:19.049703+00:00", "meta": {"OBJECT_NAME": "STARLINK-35856", "OBJECT_ID": "2025-293L", "EPOCH": "2025-12-22T04:00:01.998720", "MEAN_MOTION": 15.88480203, "ECCENTRICITY": 0.0004046, "INCLINATION": 69.9932, "RA_OF_ASC_NODE": 296.4049, "ARG_OF_PERICENTER": 272.2005, "MEAN_ANOMALY": 127.3587, "EPHEMERIS_TYPE": 0, "CLASSIFICATION_TYPE": "U", "NORAD_CAT_ID": 67013, "ELEMENT_SET_NO": 999, "REV_AT_EPOCH": 163, "BSTAR": -0.0064158, "MEAN_MOTION_DOT": -0.01542558, "MEAN_MOTION_DDOT": 0}, "tle": {"line1": "1 67013U 25293L   25356.16668980 -.01542558  00000+0 -64158-2 0  9990", "line2": "2 67013  69.9932 296.4049 0004046 272.2005 127.3587 15.88480203  1635"}}, "geometry": {"type": "Point", "coordinates": [101.60417133457148, 33.95444827977419]}}, {"type": "Feature", "properties": {"norad_id": 67014, "name": "STARLINK-36207", "group": "last-30-days", "lat": 31.57610007924064, "lon": 102.86292165963123, "alt_km": 308.02508011330065, "timestamp": "2025-12-22T08:58:19.049715+00:00", "meta": {"OBJECT_NAME": "STARLINK-36207", "OBJECT_ID": "2025-293M", "EPOCH": "2025-12-22T04:00:01.998720", "MEAN_MOTION": 15.88394308, "ECCENTRICITY": 0.0004473, "INCLINATION": 69.9937, "RA_OF_ASC_NODE": 296.402, "ARG_OF_PERICENTER": 270.7856, "MEAN_ANOMALY": 131.4374, "EPHEMERIS_TYPE": 0, "CLASSIFICATION_TYPE": "U", "NORAD_CAT_ID": 67014, "ELEMENT_SET_NO": 999, "REV_AT_EPOCH": 169, "BSTAR": -0.0062719, "MEAN_MOTION_DOT": -0.015077, "MEAN_MOTION_DDOT": 0}, "tle": {"line1": "1 67014U 25293M   25356.16668980 -.01507700  00000+0 -62719-2 0  9992", "line2": "2 67014  69.9937 296.4020 0004473 270.7856 131.4374 15.88394308  1697"}}, "geometry": {"type": "Point", "coordinates": [102.86292165963123, 31.57610007924064]}}, {"type": "Feature", "properties": {"norad_id": 67015, "name": "STARLINK-36093", "group": "last-30-days", "lat": 26.915519083456637, "lon": 105.13758611433062, "alt_km": 308.8004392490111, "timestamp": "2025-12-22T08:58:19.049726+00:00", "meta": {"OBJECT_NAME": "STARLINK-36093", "OBJECT_ID": "2025-293N", "EPOCH": "2025-12-22T04:00:01.998720", "MEAN_MOTION": 15.88364796, "ECCENTRICITY": 0.000471, "INCLINATION": 69.9931, "RA_OF_ASC_NODE": 296.3957, "ARG_OF_PERICENTER": 272.1565, "MEAN_ANOMALY": 135.1548, "EPHEMERIS_TYPE": 0, "CLASSIFICATION_TYPE": "U", "NORAD_CAT_ID": 67015, "ELEMENT_SET_NO": 999, "REV_AT_EPOCH": 163, "BSTAR": -0.0063046, "MEAN_MOTION_DOT": -0.01512839, "MEAN_MOTION_DDOT": 0}, "tle": {"line1": "1 67015U 25293N   25356.16668980 -.01512839  00000+0 -63046-2 0  9996", "line2": "2 67015  69.9931 296.3957 0004710 272.1565 135.1548 15.88364796  1633"}}, "geometry": {"type": "Point", "coordinates": [105.13758611433062, 26.915519083456637]}}, {"type": "Feature", "properties": {"norad_id": 67016, "name": "STARLINK-36120", "group": "last-30-days", "lat": 29.386925687566702, "lon": 103.95967508839085, "alt_km": 308.3368213606045, "timestamp": "2025-12-22T08:58:19.049736+00:00", "meta": {"OBJECT_NAME": "STARLINK-36120", "OBJECT_ID": "2025-293P", "EPOCH": "2025-12-22T04:00:01.998720", "MEAN_MOTION": 15.883892, "ECCENTRICITY": 0.0004662, "INCLINATION": 69.9933, "RA_OF_ASC_NODE": 296.3991, "ARG_OF_PERICENTER": 269.9424, "MEAN_ANOMALY": 134.6723, "EPHEMERIS_TYPE": 0, "CLASSIFICATION_TYPE": "U", "NORAD_CAT_ID": 67016, "ELEMENT_SET_NO": 999, "REV_AT_EPOCH": 163, "BSTAR": -0.0063207, "MEAN_MOTION_DOT": -0.01517705, "MEAN_MOTION_DDOT": 0}, "tle": {"line1": "1 67016U 25293P   25356.16668980 -.01517705  00000+0 -63207-2 0  9993", "line2": "2 67016  69.9933 296.3991 0004662 269.9424 134.6723 15.88389200  1634"}}, "geometry": {"type": "Point", "coordinates": [103.95967508839085, 29.386925687566702]}}, {"type": "Feature", "properties": {"norad_id": 67017, "name": "STARLINK-35498", "group": "last-30-days", "lat": 24.630021238153734, "lon": 106.17789008328351, "alt_km": 308.90251247444667, "timestamp": "2025-12-22T08:58:19.049746+00:00", "meta": {"OBJECT_NAME": "STARLINK-35498", "OBJECT_ID": "2025-293Q", "EPOCH": "2025-12-22T04:00:01.998720", "MEAN_MOTION": 15.88432171, "ECCENTRICITY": 0.0004392, "INCLINATION": 69.9929, "RA_OF_ASC_NODE": 296.3927, "ARG_OF_PERICENTER": 273.6764, "MEAN_ANOMALY": 136.0599, "EPHEMERIS_TYPE": 0, "CLASSIFICATION_TYPE": "U", "NORAD_CAT_ID": 67017, "ELEMENT_SET_NO": 999, "REV_AT_EPOCH": 182, "BSTAR": -0.0065186, "MEAN_MOTION_DOT": -0.01594869, "MEAN_MOTION_DDOT": 0}, "tle": {"line1": "1 67017U 25293Q   25356.16668980 -.01594869  00000+0 -65186-2 0  9998", "line2": "2 67017  69.9929 296.3927 0004392 273.6764 136.0599 15.88432171  1822"}}, "geometry": {"type": "Point", "coordinates": [106.17789008328351, 24.630021238153734]}}, {"type": "Feature", "properties": {"norad_id": 67018, "name": "STARLINK-36106", "group": "last-30-days", "lat": 22.135850503909698, "lon": 107.26682890686274, "alt_km": 309.11935922759767, "timestamp": "2025-12-22T08:58:19.049758+00:00", "meta": {"OBJECT_NAME": "STARLINK-36106", "OBJECT_ID": "2025-293R", "EPOCH": "2025-12-22T04:00:01.998720", "MEAN_MOTION": 15.88720307, "ECCENTRICITY": 0.0004375, "INCLINATION": 69.9927, "RA_OF_ASC_NODE": 296.3892, "ARG_OF_PERICENTER": 276.368, "MEAN_ANOMALY": 135.9272, "EPHEMERIS_TYPE": 0, "CLASSIFICATION_TYPE": "U", "NORAD_CAT_ID": 67018, "ELEMENT_SET_NO": 999, "REV_AT_EPOCH": 174, "BSTAR": -0.0085414, "MEAN_MOTION_DOT": -0.02087095, "MEAN_MOTION_DDOT": 0}, "tle": {"line1": "1 67018U 25293R   25356.16668980 -.02087095  00000+0 -85414-2 0  9994", "line2": "2 67018  69.9927 296.3892 0004375 276.3680 135.9272 15.88720307  1748"}}, "geometry": {"type": "Point", "coordinates": [107.26682890686274, 22.135850503909698]}}, {"type": "Feature", "properties": {"norad_id": 67019, "name": "STARLINK-35688", "group": "last-30-days", "lat": 20.07796689250184, "lon": 108.13474240413841, "alt_km": 309.1654691925596, "timestamp": "2025-12-22T08:58:19.049768+00:00", "meta": {"OBJECT_NAME": "STARLINK-35688", "OBJECT_ID": "2025-293S", "EPOCH": "2025-12-22T04:00:01.998720", "MEAN_MOTION": 15.8840849, "ECCENTRICITY": 0.0003942, "INCLINATION": 69.9926, "RA_OF_ASC_NODE": 296.3866, "ARG_OF_PERICENTER": 268.9379, "MEAN_ANOMALY": 145.7117, "EPHEMERIS_TYPE": 0, "CLASSIFICATION_TYPE": "U", "NORAD_CAT_ID": 67019, "ELEMENT_SET_NO": 999, "REV_AT_EPOCH": 182, "BSTAR": -0.0065644, "MEAN_MOTION_DOT": -0.01602474, "MEAN_MOTION_DDOT": 0}, "tle": {"line1": "1 67019U 25293S   25356.16668980 -.01602474  00000+0 -65644-2 0  9991", "line2": "2 67019  69.9926 296.3866 0003942 268.9379 145.7117 15.88408490  1822"}}, "geometry": {"type": "Point", "coordinates": [108.13474240413841, 20.07796689250184]}}, {"type": "Feature", "properties": {"norad_id": 67020, "name": "STARLINK-36172", "group": "last-30-days", "lat": 17.324731060454855, "lon": 109.25841174980413, "alt_km": 309.7718948295369, "timestamp": "2025-12-22T08:58:19.049778+00:00", "meta": {"OBJECT_NAME": "STARLINK-36172", "OBJECT_ID": "2025-293T", "EPOCH": "2025-12-22T04:00:01.998720", "MEAN_MOTION": 15.8834883, "ECCENTRICITY": 0.0004153, "INCLINATION": 69.9926, "RA_OF_ASC_NODE": 296.3831, "ARG_OF_PERICENTER": 271.7196, "MEAN_ANOMALY": 145.9208, "EPHEMERIS_TYPE": 0, "CLASSIFICATION_TYPE": "U", "NORAD_CAT_ID": 67020, "ELEMENT_SET_NO": 999, "REV_AT_EPOCH": 174, "BSTAR": -0.0064301, "MEAN_MOTION_DOT": -0.015369, "MEAN_MOTION_DDOT": 0}, "tle": {"line1": "1 67020U 25293T   25356.16668980 -.01536900  00000+0 -64301-2 0  9992", "line2": "2 67020  69.9926 296.3831 0004153 271.7196 145.9208 15.88348830  1745"}}, "geometry": {"type": "Point", "coordinates": [109.25841174980413, 17.324731060454855]}}]}